1 29155U 06018A   10009.20269735 -.00000083  00000-0  10000-3 0  9199
2 29155 000.3819 092.3287 0003019 158.9185 184.9459 01.00272151 13324